[
  {
    "OBJECT_NAME": "STARLINK-31749",
    "OBJECT_ID": "24082A",
    "EPOCH": "2025-11-11T01:32:47.640192",
    "MEAN_MOTION": 15.2757933,
    "ECCENTRICITY": 5.52e-05,
    "INCLINATION": 42.9977,
    "RA_OF_ASC_NODE": 89.4095,
    "ARG_OF_PERICENTER": 317.7251,
    "MEAN_ANOMALY": 42.3558,
    "EPHEMERIS_TYPE": 0,
    "CLASSIFICATION_TYPE": "U",
    "NORAD_CAT_ID": 59631,
    "ELEMENT_SET_NO": 999,
    "REV_AT_EPOCH": 8687,
    "BSTAR": 5.2996e-05,
    "MEAN_MOTION_DOT": 1.197e-05,
    "MEAN_MOTION_DDOT": 0.0,
    "TLE_LINE1": "1 59631U 24082A   25315.06444028  .00001197  00000+0  52996-4 0  9996",
    "TLE_LINE2": "2 59631  42.9977  89.4095 0000552 317.7251  42.3558 15.27579330 86875",
    "COMMENT": "Grouped by shell and plane from TLE"
  },
  {
    "OBJECT_NAME": "STARLINK-31541",
    "OBJECT_ID": "24082C",
    "EPOCH": "2025-11-11T01:48:57.166560",
    "MEAN_MOTION": 15.2761294,
    "ECCENTRICITY": 0.0001846,
    "INCLINATION": 43.0077,
    "RA_OF_ASC_NODE": 82.5574,
    "ARG_OF_PERICENTER": 270.2904,
    "MEAN_ANOMALY": 89.7736,
    "EPHEMERIS_TYPE": 0,
    "CLASSIFICATION_TYPE": "U",
    "NORAD_CAT_ID": 59633,
    "ELEMENT_SET_NO": 999,
    "REV_AT_EPOCH": 8694,
    "BSTAR": 0.00020949,
    "MEAN_MOTION_DOT": 5.512e-05,
    "MEAN_MOTION_DDOT": 0.0,
    "TLE_LINE1": "1 59633U 24082C   25315.07566165  .00005512  00000+0  20949-3 0  9993",
    "TLE_LINE2": "2 59633  43.0077  82.5574 0001846 270.2904  89.7736 15.27612940 86947",
    "COMMENT": "Grouped by shell and plane from TLE"
  },
  {
    "OBJECT_NAME": "STARLINK-31797",
    "OBJECT_ID": "24082D",
    "EPOCH": "2025-11-11T02:00:31.373280",
    "MEAN_MOTION": 15.27595195,
    "ECCENTRICITY": 0.0001548,
    "INCLINATION": 43.0028,
    "RA_OF_ASC_NODE": 89.5533,
    "ARG_OF_PERICENTER": 279.3712,
    "MEAN_ANOMALY": 80.6964,
    "EPHEMERIS_TYPE": 0,
    "CLASSIFICATION_TYPE": "U",
    "NORAD_CAT_ID": 59634,
    "ELEMENT_SET_NO": 999,
    "REV_AT_EPOCH": 8671,
    "BSTAR": 9.5258e-05,
    "MEAN_MOTION_DOT": 2.361e-05,
    "MEAN_MOTION_DDOT": 0.0,
    "TLE_LINE1": "1 59634U 24082D   25315.08369645  .00002361  00000+0  95258-4 0  9994",
    "TLE_LINE2": "2 59634  43.0028  89.5533 0001548 279.3712  80.6964 15.27595195 86712",
    "COMMENT": "Grouped by shell and plane from TLE"
  },
  {
    "OBJECT_NAME": "STARLINK-31802",
    "OBJECT_ID": "24082F",
    "EPOCH": "2025-11-11T02:35:41.997408",
    "MEAN_MOTION": 15.2758281,
    "ECCENTRICITY": 0.0001385,
    "INCLINATION": 43.0045,
    "RA_OF_ASC_NODE": 89.7311,
    "ARG_OF_PERICENTER": 277.2043,
    "MEAN_ANOMALY": 82.8651,
    "EPHEMERIS_TYPE": 0,
    "CLASSIFICATION_TYPE": "U",
    "NORAD_CAT_ID": 59636,
    "ELEMENT_SET_NO": 999,
    "REV_AT_EPOCH": 8667,
    "BSTAR": 5.6241e-05,
    "MEAN_MOTION_DOT": 1.286e-05,
    "MEAN_MOTION_DDOT": 0.0,
    "TLE_LINE1": "1 59636U 24082F   25315.10812497  .00001286  00000+0  56241-4 0  9991",
    "TLE_LINE2": "2 59636  43.0045  89.7311 0001385 277.2043  82.8651 15.27582810 86674",
    "COMMENT": "Grouped by shell and plane from TLE"
  },
  {
    "OBJECT_NAME": "STARLINK-31791",
    "OBJECT_ID": "24082G",
    "EPOCH": "2025-11-11T01:43:52.471776",
    "MEAN_MOTION": 15.2760356,
    "ECCENTRICITY": 0.000111,
    "INCLINATION": 42.999,
    "RA_OF_ASC_NODE": 89.4643,
    "ARG_OF_PERICENTER": 273.1935,
    "MEAN_ANOMALY": 86.879,
    "EPHEMERIS_TYPE": 0,
    "CLASSIFICATION_TYPE": "U",
    "NORAD_CAT_ID": 59637,
    "ELEMENT_SET_NO": 999,
    "REV_AT_EPOCH": 8667,
    "BSTAR": 0.0,
    "MEAN_MOTION_DOT": -6.625e-05,
    "MEAN_MOTION_DDOT": 0.0,
    "TLE_LINE1": "1 59637U 24082G   25315.07213509 -.00006625  00000+0 -23126-3 0  9996",
    "TLE_LINE2": "2 59637  42.9990  89.4643 0001110 273.1935  86.8790 15.27603560 86672",
    "COMMENT": "Grouped by shell and plane from TLE"
  },
  {
    "OBJECT_NAME": "STARLINK-31806",
    "OBJECT_ID": "24082K",
    "EPOCH": "2025-11-11T02:15:20.542464",
    "MEAN_MOTION": 15.27576615,
    "ECCENTRICITY": 9.08e-05,
    "INCLINATION": 43.0045,
    "RA_OF_ASC_NODE": 89.6314,
    "ARG_OF_PERICENTER": 284.3435,
    "MEAN_ANOMALY": 75.7316,
    "EPHEMERIS_TYPE": 0,
    "CLASSIFICATION_TYPE": "U",
    "NORAD_CAT_ID": 59640,
    "ELEMENT_SET_NO": 999,
    "REV_AT_EPOCH": 8667,
    "BSTAR": 0.00011592,
    "MEAN_MOTION_DOT": 2.929e-05,
    "MEAN_MOTION_DDOT": 0.0,
    "TLE_LINE1": "1 59640U 24082K   25315.09398776  .00002929  00000+0  11592-3 0  9997",
    "TLE_LINE2": "2 59640  43.0045  89.6314 0000908 284.3435  75.7316 15.27576615 86670",
    "COMMENT": "Grouped by shell and plane from TLE"
  },
  {
    "OBJECT_NAME": "STARLINK-31789",
    "OBJECT_ID": "24082P",
    "EPOCH": "2025-11-11T01:54:59.020992",
    "MEAN_MOTION": 15.27621795,
    "ECCENTRICITY": 0.0001978,
    "INCLINATION": 43.0012,
    "RA_OF_ASC_NODE": 89.5211,
    "ARG_OF_PERICENTER": 280.41,
    "MEAN_ANOMALY": 79.6529,
    "EPHEMERIS_TYPE": 0,
    "CLASSIFICATION_TYPE": "U",
    "NORAD_CAT_ID": 59644,
    "ELEMENT_SET_NO": 999,
    "REV_AT_EPOCH": 8687,
    "BSTAR": 0.0013256000000000001,
    "MEAN_MOTION_DOT": 0.00036443,
    "MEAN_MOTION_DDOT": 0.0,
    "TLE_LINE1": "1 59644U 24082P   25315.07984978  .00036443  00000+0  13256-2 0  9990",
    "TLE_LINE2": "2 59644  43.0012  89.5211 0001978 280.4100  79.6529 15.27621795 86878",
    "COMMENT": "Grouped by shell and plane from TLE"
  },
  {
    "OBJECT_NAME": "STARLINK-31787",
    "OBJECT_ID": "24082V",
    "EPOCH": "2025-11-11T02:09:47.320992",
    "MEAN_MOTION": 15.27579013,
    "ECCENTRICITY": 0.0001503,
    "INCLINATION": 43.0065,
    "RA_OF_ASC_NODE": 89.6007,
    "ARG_OF_PERICENTER": 276.0785,
    "MEAN_ANOMALY": 83.9895,
    "EPHEMERIS_TYPE": 0,
    "CLASSIFICATION_TYPE": "U",
    "NORAD_CAT_ID": 59650,
    "ELEMENT_SET_NO": 999,
    "REV_AT_EPOCH": 8687,
    "BSTAR": 6.8825e-05,
    "MEAN_MOTION_DOT": 1.632e-05,
    "MEAN_MOTION_DDOT": 0.0,
    "TLE_LINE1": "1 59650U 24082V   25315.09013103  .00001632  00000+0  68825-4 0  9998",
    "TLE_LINE2": "2 59650  43.0065  89.6007 0001503 276.0785  83.9895 15.27579013 86870",
    "COMMENT": "Grouped by shell and plane from TLE"
  },
  {
    "OBJECT_NAME": "STARLINK-31277",
    "OBJECT_ID": "24082W",
    "EPOCH": "2025-11-11T02:20:53.639520",
    "MEAN_MOTION": 15.27583317,
    "ECCENTRICITY": 0.0001055,
    "INCLINATION": 43.0031,
    "RA_OF_ASC_NODE": 89.6564,
    "ARG_OF_PERICENTER": 279.319,
    "MEAN_ANOMALY": 80.7543,
    "EPHEMERIS_TYPE": 0,
    "CLASSIFICATION_TYPE": "U",
    "NORAD_CAT_ID": 59651,
    "ELEMENT_SET_NO": 999,
    "REV_AT_EPOCH": 8687,
    "BSTAR": 2.9698999999999998e-05,
    "MEAN_MOTION_DOT": 5.55e-06,
    "MEAN_MOTION_DDOT": 0.0,
    "TLE_LINE1": "1 59651U 24082W   25315.09784305  .00000555  00000+0  29699-4 0  9997",
    "TLE_LINE2": "2 59651  43.0031  89.6564 0001055 279.3190  80.7543 15.27583317 86877",
    "COMMENT": "Grouped by shell and plane from TLE"
  },
  {
    "OBJECT_NAME": "STARLINK-31799",
    "OBJECT_ID": "24082X",
    "EPOCH": "2025-11-10T09:58:52.363776",
    "MEAN_MOTION": 15.27573451,
    "ECCENTRICITY": 0.0001495,
    "INCLINATION": 43.0028,
    "RA_OF_ASC_NODE": 82.728,
    "ARG_OF_PERICENTER": 293.35,
    "MEAN_ANOMALY": 66.7194,
    "EPHEMERIS_TYPE": 0,
    "CLASSIFICATION_TYPE": "U",
    "NORAD_CAT_ID": 59652,
    "ELEMENT_SET_NO": 999,
    "REV_AT_EPOCH": 8674,
    "BSTAR": 0.00015551,
    "MEAN_MOTION_DOT": 4.019e-05,
    "MEAN_MOTION_DDOT": 0.0,
    "TLE_LINE1": "1 59652U 24082X   25314.41588384  .00004019  00000+0  15551-3 0  9992",
    "TLE_LINE2": "2 59652  43.0028  82.7280 0001495 293.3500  66.7194 15.27573451 86742",
    "COMMENT": "Grouped by shell and plane from TLE"
  },
  {
    "OBJECT_NAME": "STARLINK-31764",
    "OBJECT_ID": "24082Y",
    "EPOCH": "2025-11-11T01:49:26.635872",
    "MEAN_MOTION": 15.27580589,
    "ECCENTRICITY": 0.0001006,
    "INCLINATION": 43.0002,
    "RA_OF_ASC_NODE": 89.49,
    "ARG_OF_PERICENTER": 279.5586,
    "MEAN_ANOMALY": 80.5152,
    "EPHEMERIS_TYPE": 0,
    "CLASSIFICATION_TYPE": "U",
    "NORAD_CAT_ID": 59653,
    "ELEMENT_SET_NO": 999,
    "REV_AT_EPOCH": 8687,
    "BSTAR": 0.00019416,
    "MEAN_MOTION_DOT": 5.085e-05,
    "MEAN_MOTION_DDOT": 0.0,
    "TLE_LINE1": "1 59653U 24082Y   25315.07600273  .00005085  00000+0  19416-3 0  9996",
    "TLE_LINE2": "2 59653  43.0002  89.4900 0001006 279.5586  80.5152 15.27580589 86878",
    "COMMENT": "Grouped by shell and plane from TLE"
  },
  {
    "OBJECT_NAME": "STARLINK-31976",
    "OBJECT_ID": "24100C",
    "EPOCH": "2025-11-10T09:01:40.950624",
    "MEAN_MOTION": 15.27579832,
    "ECCENTRICITY": 0.0001277,
    "INCLINATION": 43.0011,
    "RA_OF_ASC_NODE": 83.1469,
    "ARG_OF_PERICENTER": 274.1543,
    "MEAN_ANOMALY": 85.9162,
    "EPHEMERIS_TYPE": 0,
    "CLASSIFICATION_TYPE": "U",
    "NORAD_CAT_ID": 59887,
    "ELEMENT_SET_NO": 999,
    "REV_AT_EPOCH": 8286,
    "BSTAR": 6.765900000000001e-05,
    "MEAN_MOTION_DOT": 1.6e-05,
    "MEAN_MOTION_DDOT": 0.0,
    "TLE_LINE1": "1 59887U 24100C   25314.37616841  .00001600  00000+0  67659-4 0  9998",
    "TLE_LINE2": "2 59887  43.0011  83.1469 0001277 274.1543  85.9162 15.27579832 82866",
    "COMMENT": "Grouped by shell and plane from TLE"
  },
  {
    "OBJECT_NAME": "STARLINK-32470",
    "OBJECT_ID": "24222B",
    "EPOCH": "2025-11-11T02:17:47.746464",
    "MEAN_MOTION": 15.27580791,
    "ECCENTRICITY": 8.59e-05,
    "INCLINATION": 43.0036,
    "RA_OF_ASC_NODE": 85.7606,
    "ARG_OF_PERICENTER": 307.5074,
    "MEAN_ANOMALY": 52.57,
    "EPHEMERIS_TYPE": 0,
    "CLASSIFICATION_TYPE": "U",
    "NORAD_CAT_ID": 62115,
    "ELEMENT_SET_NO": 999,
    "REV_AT_EPOCH": 5476,
    "BSTAR": 0.0011142,
    "MEAN_MOTION_DOT": 0.00030526,
    "MEAN_MOTION_DDOT": 0.0,
    "TLE_LINE1": "1 62115U 24222B   25315.09569151  .00030526  00000+0  11142-2 0  9995",
    "TLE_LINE2": "2 62115  43.0036  85.7606 0000859 307.5074  52.5700 15.27580791 54769",
    "COMMENT": "Grouped by shell and plane from TLE"
  }
]